FENGYUN 1C DEB          
1 32354U 99025CYX 17345.39137321  .00001844  00000-0  90430-3 0  9997
2 32354 102.9287 188.2124 0216274  51.7106 310.3285 14.08431071536865
